0 COSMOS 2251 DEB
1 37537U 93036BNS 13284.24658898  .00000284  00000-0  11084-3 0  1829
2 37537 074.0136 142.2735 0055179 257.0648 102.4358 14.33297789212743
0 COSMOS 2251 DEB
1 37537U 93036BNS 13287.24786641  .00000285  00000-0  11127-3 0  1830
2 37537 074.0131 136.7792 0055188 250.8253 108.6936 14.33299696213179
0 COSMOS 2251 DEB
1 37537U 93036BNS 13289.90015560  .00000289  00000-0  11280-3 0  1845
2 37537 074.0136 131.9257 0055365 245.5007 114.0402 14.33301552213558
0 COSMOS 2251 DEB
1 37537U 93036BNS 13293.18061327  .00000304  00000-0  11792-3 0  1859
2 37537 074.0133 125.9213 0055312 238.6999 120.8756 14.33304133214023
0 COSMOS 2251 DEB
1 37537U 93036BNS 13295.83289676  .00000325  00000-0  12556-3 0  1865
2 37537 074.0125 121.0669 0055150 233.9024 125.7158 14.33306583214406
